YOTSUBA-KULOVER         
1 65941U 98067XN  26052.67566251  .00130422  00000+0  86853-3 0  9992
2 65941  51.6233 139.9500 0005554 343.5325  16.5492 15.74466328 20979
BOTAN                   
1 65942U 98067XP  26052.59975990  .00609668  16728-3  14362-2 0  9994
2 65942  51.6138 134.8513 0009860   1.0978 359.0050 15.96170388 21031
E-KAGAKU-1              
1 65943U 98067XQ  26052.61412559  .00131011  00000+0  87964-3 0  9998
2 65943  51.6258 140.3031 0005620 353.0788   7.0133 15.74273931 20968
HRC MONOBLOCK CAMERA    
1 66052U 98067XR  26053.27475320  .00046806  00000+0  56031-3 0  9996
2 66052  51.6278 143.2265 0002701  33.4485 326.6679 15.60482841 19985
HTV-X1                  
1 66174U 25241A   26052.76529869  .00010666  00000+0  20704-3 0  9999
2 66174  51.6320 151.0701 0008511 119.8639 240.3195 15.48189327   518
SZ-21 MODULE            
1 66515U 25246C   26053.08571975  .00030145  00000+0  27430-3 0  9991
2 66515  41.4753 299.3233 0001593 293.5720  66.4954 15.67269924 15625
SHENZHOU-22             
1 66645U 25272A   26052.90580858  .00015335  00000+0  18817-3 0  9997
2 66645  41.4670 304.1498 0004996 166.7243 193.3728 15.59974430267642
SOYUZ-MS 28             
1 66664U 25275A   26053.53988092  .00013813  00000+0  26535-3 0  9998
2 66664  51.6319 147.2426 0008486 122.5009 237.6801 15.48211085553988
DUPLEX                  
1 66906U 98067XS  26053.55431879  .00037405  00000+0  54899-3 0  9991
2 66906  51.6294 145.0933 0001710  69.9312 290.1863 15.55139531 12774
ISS OBJECT XT           
1 66907U 98067XT  26053.27515899  .00127250  00000+0  12704-2 0  9992
2 66907  51.6255 143.9742 0003623 354.8184   5.2773 15.64704842 12762
ISS OBJECT XU           
1 66908U 98067XU  26053.27422046  .00129013  00000+0  12850-2 0  9995
2 66908  51.6253 143.9648 0003624 358.4330   1.6653 15.64758148 12765
SILVERSAT               
1 66909U 98067XV  26053.61737772  .00163517  00000+0  14932-2 0  9999
2 66909  51.6254 141.7563 0004503 355.2095   4.8857 15.66796525 12820
